{
    "links": {
        "self": "http://www.neowsapp.com/rest/v1/neo/3653468?api_key=iIulBulltgU6a56xZRHN4H3l9WmuAYTsLGpBGhQ2"
    },
    "id": "3653468",
    "neo_reference_id": "3653468",
    "name": "(2013 VO4)",
    "designation": "2013 VO4",
    "nasa_jpl_url": "http://ssd.jpl.nasa.gov/sbdb.cgi?sstr=3653468",
    "absolute_magnitude_h": 27.1,
    "estimated_diameter": {
        "kilometers": {
            "estimated_diameter_min": 0.0101054342,
            "estimated_diameter_max": 0.0225964377
        },
        "meters": {
            "estimated_diameter_min": 10.1054341542,
            "estimated_diameter_max": 22.5964377109
        },
        "miles": {
            "estimated_diameter_min": 0.0062792237,
            "estimated_diameter_max": 0.0140407711
        },
        "feet": {
            "estimated_diameter_min": 33.1543125905,
            "estimated_diameter_max": 74.1352966996
        }
    },
    "is_potentially_hazardous_asteroid": false,
    "close_approach_data": [
        {
            "close_approach_date": "2012-01-15",
            "close_approach_date_full": "2012-Jan-15 05:53",
            "epoch_date_close_approach": 1326606780000,
            "relative_velocity": {
                "kilometers_per_second": "13.2329225379",
                "kilometers_per_hour": "47638.521136327",
                "miles_per_hour": "29600.7244249583"
            },
            "miss_distance": {
                "astronomical": "0.2848749323",
                "lunar": "110.8163486647",
                "kilometers": "42616683.088474201",
                "miles": "26480778.9411419338"
            },
            "orbiting_body": "Earth"
        },
        {
            "close_approach_date": "2013-11-12",
            "close_approach_date_full": "2013-Nov-12 06:33",
            "epoch_date_close_approach": 1384237980000,
            "relative_velocity": {
                "kilometers_per_second": "5.611342797",
                "kilometers_per_hour": "20200.834069352",
                "miles_per_hour": "12552.0127027037"
            },
            "miss_distance": {
                "astronomical": "0.0288372833",
                "lunar": "11.2177032037",
                "kilometers": "4313996.158266571",
                "miles": "2680592.9120018398"
            },
            "orbiting_body": "Earth"
        },
        {
            "close_approach_date": "2015-10-07",
            "close_approach_date_full": "2015-Oct-07 03:25",
            "epoch_date_close_approach": 1444188300000,
            "relative_velocity": {
                "kilometers_per_second": "16.8168361413",
                "kilometers_per_hour": "60540.610108536",
                "miles_per_hour": "37617.5807643845"
            },
            "miss_distance": {
                "astronomical": "0.390055975",
                "lunar": "151.731774275",
                "kilometers": "58351543.04077325",
                "miles": "36257967.54124085"
            },
            "orbiting_body": "Earth"
        }
    ],
    "orbital_data": {
        "orbit_id": "8",
        "orbit_determination_date": "2017-04-06 08:43:49",
        "first_observation_date": "2013-11-04",
        "last_observation_date": "2013-11-14",
        "data_arc_in_days": 10,
        "observations_used": 27,
        "orbit_uncertainty": "7",
        "minimum_orbit_intersection": ".0269642",
        "jupiter_tisserand_invariant": "4.366",
        "epoch_osculation": "2459000.5",
        "eccentricity": ".3577829606229329",
        "semi_major_axis": "1.554281774332636",
        "inclination": "4.378919901736626",
        "ascending_node_longitude": "220.1958147261598",
        "orbital_period": "707.77148001337",
        "perihelion_distance": ".99818623946964",
        "perihelion_argument": "209.6883646854524",
        "aphelion_distance": "2.110377309195632",
        "perihelion_time": "2458749.725483475822",
        "mean_anomaly": "127.5536363050381",
        "mean_motion": ".5086387487571546",
        "equinox": "J2000",
        "orbit_class": {
            "orbit_class_type": "APO",
            "orbit_class_description": "Near-Earth asteroid orbits which cross the Earth’s orbit similar to that of 1862 Apollo",
            "orbit_class_range": "a (semi-major axis) > 1.0 AU; q (perihelion) < 1.017 AU"
        }
    },
    "is_sentry_object": false
}